OBJECT_NAME,OBJECT_ID,EPOCH,MEAN_MOTION,ECCENTRICITY,INCLINATION,RA_OF_ASC_NODE,ARG_OF_PERICENTER,MEAN_ANOMALY,EPHEMERIS_TYPE,CLASSIFICATION_TYPE,NORAD_CAT_ID,ELEMENT_SET_NO,REV_AT_EPOCH,BSTAR,MEAN_MOTION_DOT,MEAN_MOTION_DDOT
SAUDISAT 1C (SO-50),2002-058C,2026-06-18T08:51:28.340928,14.83049237,.0075194,64.5511,125.3282,262.2562,97.0002,0,U,27607,999,26463,.11046E-3,.788E-5,0
SAUDISAT 2,2004-025F,2026-06-18T17:54:30.714048,14.56684653,.0023544,98.5507,169.7684,293.2408,66.6310,0,U,28371,999,16597,.51261E-4,.18E-5,0
SAUDISAT 3,2007-012B,2026-06-18T18:06:49.212000,14.71426372,.0013731,98.1456,120.1564,218.5452,141.4775,0,U,31118,999,2797,.39498E-4,.194E-5,0
PISAT,2016-059B,2026-06-18T17:03:22.016736,14.68985598,.0028518,97.8178,170.0980,197.7841,162.2369,0,U,41784,999,51996,.11973E-3,.658E-5,0
FLYING LAPTOP,2017-042G,2026-06-18T20:26:49.515072,15.01155413,.0019612,97.4694,325.3204,116.1799,244.1446,0,U,42831,999,48670,.23235E-3,.2932E-4,0
SALSAT,2020-068K,2026-06-18T10:53:20.067072,15.29814902,.0007987,97.8850,172.5954,302.8690,57.1780,0,U,46495,999,31555,.21401E-3,.61E-4,0
